FLOCK 4G-29             
1 62642U 25009AK  26068.81464037  .00011147  00000+0  41831-3 0  9994
2 62642  97.4058 151.3683 0001366 288.0502  72.0588 15.27382318 63721
STARLINK-36080          
1 66801U 25278L   26068.55309670  .00020570  00000+0  75479-3 0  9990
2 66801  43.0031 115.5345 0002022 263.5318  96.5303 15.27585483 15181
